{
    "links": {
        "self": "http://www.neowsapp.com/rest/v1/neo/3771788?api_key=iIulBulltgU6a56xZRHN4H3l9WmuAYTsLGpBGhQ2"
    },
    "id": "3771788",
    "neo_reference_id": "3771788",
    "name": "(2017 FG63)",
    "designation": "2017 FG63",
    "nasa_jpl_url": "http://ssd.jpl.nasa.gov/sbdb.cgi?sstr=3771788",
    "absolute_magnitude_h": 22.6,
    "estimated_diameter": {
        "kilometers": {
            "estimated_diameter_min": 0.0802703167,
            "estimated_diameter_max": 0.1794898848
        },
        "meters": {
            "estimated_diameter_min": 80.2703167283,
            "estimated_diameter_max": 179.4898847799
        },
        "miles": {
            "estimated_diameter_min": 0.049877647,
            "estimated_diameter_max": 0.1115298092
        },
        "feet": {
            "estimated_diameter_min": 263.3540659348,
            "estimated_diameter_max": 588.8775935812
        }
    },
    "is_potentially_hazardous_asteroid": false,
    "close_approach_data": [
        {
            "close_approach_date": "1926-06-22",
            "close_approach_date_full": "1926-Jun-22 01:40",
            "epoch_date_close_approach": -1373667600000,
            "relative_velocity": {
                "kilometers_per_second": "9.033068273",
                "kilometers_per_hour": "32519.0457828876",
                "miles_per_hour": "20206.0704199281"
            },
            "miss_distance": {
                "astronomical": "1.433579971",
                "lunar": "557.662608719",
                "kilometers": "214460510.13626177",
                "miles": "133259581.669761626"
            },
            "orbiting_body": "Juptr"
        },
        {
            "close_approach_date": "2017-03-07",
            "close_approach_date_full": "2017-Mar-07 06:04",
            "epoch_date_close_approach": 1488866640000,
            "relative_velocity": {
                "kilometers_per_second": "15.7655474317",
                "kilometers_per_hour": "56755.9707542492",
                "miles_per_hour": "35265.95305005"
            },
            "miss_distance": {
                "astronomical": "0.1433668624",
                "lunar": "55.7697094736",
                "kilometers": "21447377.243623088",
                "miles": "13326782.2480830944"
            },
            "orbiting_body": "Earth"
        },
        {
            "close_approach_date": "2033-01-23",
            "close_approach_date_full": "2033-Jan-23 15:45",
            "epoch_date_close_approach": 1990107900000,
            "relative_velocity": {
                "kilometers_per_second": "8.0459890432",
                "kilometers_per_hour": "28965.5605556406",
                "miles_per_hour": "17998.072890809"
            },
            "miss_distance": {
                "astronomical": "1.6143860261",
                "lunar": "627.9961641529",
                "kilometers": "241508710.862324407",
                "miles": "150066554.2512625366"
            },
            "orbiting_body": "Juptr"
        },
        {
            "close_approach_date": "2056-10-19",
            "close_approach_date_full": "2056-Oct-19 23:38",
            "epoch_date_close_approach": 2739224280000,
            "relative_velocity": {
                "kilometers_per_second": "7.9666450458",
                "kilometers_per_hour": "28679.9221649616",
                "miles_per_hour": "17820.5883030007"
            },
            "miss_distance": {
                "astronomical": "1.6105068182",
                "lunar": "626.4871522798",
                "kilometers": "240928389.623197234",
                "miles": "149705959.3542764692"
            },
            "orbiting_body": "Juptr"
        }
    ],
    "orbital_data": {
        "orbit_id": "4",
        "orbit_determination_date": "2020-09-06 06:25:21",
        "first_observation_date": "2017-03-20",
        "last_observation_date": "2017-04-22",
        "data_arc_in_days": 33,
        "observations_used": 30,
        "orbit_uncertainty": "7",
        "minimum_orbit_intersection": ".0764252",
        "jupiter_tisserand_invariant": "2.928",
        "epoch_osculation": "2459000.5",
        "eccentricity": ".6407501155886357",
        "semi_major_axis": "2.805423807849085",
        "inclination": "17.76927167597725",
        "ascending_node_longitude": "165.1942070513478",
        "orbital_period": "1716.311625661716",
        "perihelion_distance": "1.007848178694673",
        "perihelion_argument": "324.7898637246432",
        "aphelion_distance": "4.602999437003497",
        "perihelion_time": "2459511.235308933226",
        "mean_anomaly": "252.8721868063598",
        "mean_motion": ".2097521187978924",
        "equinox": "J2000",
        "orbit_class": {
            "orbit_class_type": "APO",
            "orbit_class_description": "Near-Earth asteroid orbits which cross the Earth’s orbit similar to that of 1862 Apollo",
            "orbit_class_range": "a (semi-major axis) > 1.0 AU; q (perihelion) < 1.017 AU"
        }
    },
    "is_sentry_object": false
}